{"type": "FeatureCollection", "features": [ {"type": "Feature", "properties": {"norad_id": 39634, "name": "SENTINEL-1A", "group": "resource", "lat": -1.8997330116451665, "lon": -174.83750569526137, "alt_km": 699.1005443804897, "timestamp": "2025-12-26T09:30:53.284904+00:00", "meta": {"OBJECT_NAME": "SENTINEL-1A", "OBJECT_ID": "2014-016A", "EPOCH": "2025-12-26T03:44:50.140896", "MEAN_MOTION": 14.59199806, "ECCENTRICITY": 0.0001261, "INCLINATION": 98.1803, "RA_OF_ASC_NODE": 5.1991, "ARG_OF_PERICENTER": 85.293, "MEAN_ANOMALY": 274.8414, "EPHEMERIS_TYPE": 0, "CLASSIFICATION_TYPE": "U", "NORAD_CAT_ID": 39634, "ELEMENT_SET_NO": 999, "REV_AT_EPOCH": 62478, "BSTAR": 2.3206e-05, "MEAN_MOTION_DOT": 6.4e-07, "MEAN_MOTION_DDOT": 0}, "tle": {"line1": "1 39634U 14016A   25360.15613589  .00000064  00000+0  23206-4 0  9997", "line2": "2 39634  98.1803   5.1991 0001261  85.2930 274.8414 14.59199806624787"}}, "geometry": {"type": "Point", "coordinates": [-174.83750569526137, -1.8997330116451665]}}, {"type": "Feature", "properties": {"norad_id": 39731, "name": "KAZEOSAT 1", "group": "resource", "lat": 34.723273827595584, "lon": 66.16039402148165, "alt_km": 748.951305431463, "timestamp": "2025-12-26T09:30:53.284915+00:00", "meta": {"OBJECT_NAME": "KAZEOSAT 1", "OBJECT_ID": "2014-024A", "EPOCH": "2025-12-26T04:21:23.823936", "MEAN_MOTION": 14.42069723, "ECCENTRICITY": 0.000122, "INCLINATION": 98.3414, "RA_OF_ASC_NODE": 71.7863, "ARG_OF_PERICENTER": 97.6795, "MEAN_ANOMALY": 262.4533, "EPHEMERIS_TYPE": 0, "CLASSIFICATION_TYPE": "U", "NORAD_CAT_ID": 39731, "ELEMENT_SET_NO": 999, "REV_AT_EPOCH": 61362, "BSTAR": 5.0425e-05, "MEAN_MOTION_DOT": 1.23e-06, "MEAN_MOTION_DDOT": 0}, "tle": {"line1": "1 39731U 14024A   25360.18152574  .00000123  00000+0  50425-4 0  9998", "line2": "2 39731  98.3414  71.7863 0001220  97.6795 262.4533 14.42069723613625"}}, "geometry": {"type": "Point", "coordinates": [66.16039402148165, 34.723273827595584]}}, {"type": "Feature", "properties": {"norad_id": 39766, "name": "ALOS-2", "group": "resource", "lat": -44.33576303175172, "lon": 102.86736009891023, "alt_km": 638.4727297011214, "timestamp": "2025-12-26T09:30:53.284924+00:00", "meta": {"OBJECT_NAME": "ALOS-2", "OBJECT_ID": "2014-029A", "EPOCH": "2025-12-26T04:50:51.877248", "MEAN_MOTION": 14.79471307, "ECCENTRICITY": 0.0001415, "INCLINATION": 97.9221, "RA_OF_ASC_NODE": 94.856, "ARG_OF_PERICENTER": 96.0944, "MEAN_ANOMALY": 264.0429, "EPHEMERIS_TYPE": 0, "CLASSIFICATION_TYPE": "U", "NORAD_CAT_ID": 39766, "ELEMENT_SET_NO": 999, "REV_AT_EPOCH": 62600, "BSTAR": 0.00020332, "MEAN_MOTION_DOT": 1.467e-05, "MEAN_MOTION_DDOT": 0}, "tle": {"line1": "1 39766U 14029A   25360.20198932  .00001467  00000+0  20332-3 0  9997", "line2": "2 39766  97.9221  94.8560 0001415  96.0944 264.0429 14.79471307626002"}}, "geometry": {"type": "Point", "coordinates": [102.86736009891023, -44.33576303175172]}}, {"type": "Feature", "properties": {"norad_id": 40010, "name": "KAZEOSAT 2", "group": "resource", "lat": 34.344305437409446, "lon": 29.20478648639087, "alt_km": 604.8789698488317, "timestamp": "2025-12-26T09:30:53.284936+00:00", "meta": {"OBJECT_NAME": "KAZEOSAT 2", "OBJECT_ID": "2014-033A", "EPOCH": "2025-12-26T04:00:44.140320", "MEAN_MOTION": 14.85187766, "ECCENTRICITY": 0.000878, "INCLINATION": 97.5496, "RA_OF_ASC_NODE": 203.7882, "ARG_OF_PERICENTER": 160.8315, "MEAN_ANOMALY": 199.3233, "EPHEMERIS_TYPE": 0, "CLASSIFICATION_TYPE": "U", "NORAD_CAT_ID": 40010, "ELEMENT_SET_NO": 999, "REV_AT_EPOCH": 62327, "BSTAR": 3.2082e-05, "MEAN_MOTION_DOT": 2.25e-06, "MEAN_MOTION_DDOT": 0}, "tle": {"line1": "1 40010U 14033A   25360.16717755  .00000225  00000+0  32082-4 0  9998", "line2": "2 40010  97.5496 203.7882 0008780 160.8315 199.3233 14.85187766623277"}}, "geometry": {"type": "Point", "coordinates": [29.20478648639087, 34.344305437409446]}}, {"type": "Feature", "properties": {"norad_id": 40011, "name": "HODOYOSHI-4", "group": "resource", "lat": -12.843755159085395, "lon": -169.66214093223627, "alt_km": 626.7918991932465, "timestamp": "2025-12-26T09:30:53.284946+00:00", "meta": {"OBJECT_NAME": "HODOYOSHI-4", "OBJECT_ID": "2014-033B", "EPOCH": "2025-12-26T04:43:47.707680", "MEAN_MOTION": 14.87525993, "ECCENTRICITY": 0.0024244, "INCLINATION": 97.5411, "RA_OF_ASC_NODE": 188.4176, "ARG_OF_PERICENTER": 156.0072, "MEAN_ANOMALY": 204.228, "EPHEMERIS_TYPE": 0, "CLASSIFICATION_TYPE": "U", "NORAD_CAT_ID": 40011, "ELEMENT_SET_NO": 999, "REV_AT_EPOCH": 62308, "BSTAR": 0.00010312, "MEAN_MOTION_DOT": 8.88e-06, "MEAN_MOTION_DDOT": 0}, "tle": {"line1": "1 40011U 14033B   25360.19707995  .00000888  00000+0  10312-3 0  9993", "line2": "2 40011  97.5411 188.4176 0024244 156.0072 204.2280 14.87525993623087"}}, "geometry": {"type": "Point", "coordinates": [-169.66214093223627, -12.843755159085395]}}, {"type": "Feature", "properties": {"norad_id": 40013, "name": "DEIMOS-2", "group": "resource", "lat": 53.57119758597331, "lon": -134.68321082994873, "alt_km": 582.9162457460707, "timestamp": "2025-12-26T09:30:53.284956+00:00", "meta": {"OBJECT_NAME": "DEIMOS-2", "OBJECT_ID": "2014-033D", "EPOCH": "2025-12-26T04:26:49.934688", "MEAN_MOTION": 14.93030577, "ECCENTRICITY": 0.0001352, "INCLINATION": 97.6047, "RA_OF_ASC_NODE": 235.5421, "ARG_OF_PERICENTER": 108.7841, "MEAN_ANOMALY": 251.3526, "EPHEMERIS_TYPE": 0, "CLASSIFICATION_TYPE": "U", "NORAD_CAT_ID": 40013, "ELEMENT_SET_NO": 999, "REV_AT_EPOCH": 61190, "BSTAR": 0.00033692, "MEAN_MOTION_DOT": 3.451e-05, "MEAN_MOTION_DDOT": 0}, "tle": {"line1": "1 40013U 14033D   25360.18530017  .00003451  00000+0  33692-3 0  9998", "line2": "2 40013  97.6047 235.5421 0001352 108.7841 251.3526 14.93030577611905"}}, "geometry": {"type": "Point", "coordinates": [-134.68321082994873, 53.57119758597331]}}, {"type": "Feature", "properties": {"norad_id": 40015, "name": "HODOYOSHI-3", "group": "resource", "lat": 38.511611051679296, "lon": -8.24543096124396, "alt_km": 599.9683170076732, "timestamp": "2025-12-26T09:30:53.284967+00:00", "meta": {"OBJECT_NAME": "HODOYOSHI-3", "OBJECT_ID": "2014-033F", "EPOCH": "2025-12-26T04:01:40.353024", "MEAN_MOTION": 14.8485107, "ECCENTRICITY": 0.0032604, "INCLINATION": 97.6208, "RA_OF_ASC_NODE": 165.4198, "ARG_OF_PERICENTER": 202.3678, "MEAN_ANOMALY": 157.6118, "EPHEMERIS_TYPE": 0, "CLASSIFICATION_TYPE": "U", "NORAD_CAT_ID": 40015, "ELEMENT_SET_NO": 999, "REV_AT_EPOCH": 62194, "BSTAR": 0.00018712, "MEAN_MOTION_DOT": 1.552e-05, "MEAN_MOTION_DDOT": 0}, "tle": {"line1": "1 40015U 14033F   25360.16782816  .00001552  00000+0  18712-3 0  9990", "line2": "2 40015  97.6208 165.4198 0032604 202.3678 157.6118 14.84851070621940"}}, "geometry": {"type": "Point", "coordinates": [-8.24543096124396, 38.511611051679296]}}, {"type": "Feature", "properties": {"norad_id": 40053, "name": "SPOT 7", "group": "resource", "lat": 56.990672026833444, "lon": -105.1997500199497, "alt_km": 684.4782484966454, "timestamp": "2025-12-26T09:30:53.284977+00:00", "meta": {"OBJECT_NAME": "SPOT 7", "OBJECT_ID": "2014-034A", "EPOCH": "2025-12-26T04:01:34.343040", "MEAN_MOTION": 14.60750675, "ECCENTRICITY": 0.0001505, "INCLINATION": 98.0883, "RA_OF_ASC_NODE": 61.9324, "ARG_OF_PERICENTER": 81.5697, "MEAN_ANOMALY": 278.5675, "EPHEMERIS_TYPE": 0, "CLASSIFICATION_TYPE": "U", "NORAD_CAT_ID": 40053, "ELEMENT_SET_NO": 999, "REV_AT_EPOCH": 61187, "BSTAR": 0.00013875, "MEAN_MOTION_DOT": 6.31e-06, "MEAN_MOTION_DDOT": 0}, "tle": {"line1": "1 40053U 14034A   25360.16775860  .00000631  00000+0  13875-3 0  9996", "line2": "2 40053  98.0883  61.9324 0001505  81.5697 278.5675 14.60750675611876"}}, "geometry": {"type": "Point", "coordinates": [-105.1997500199497, 56.990672026833444]}}, {"type": "Feature", "properties": {"norad_id": 40072, "name": "SKYSAT-B", "group": "resource", "lat": -73.98451870402769, "lon": -24.344798407099102, "alt_km": 618.1801916623144, "timestamp": "2025-12-26T09:30:53.284987+00:00", "meta": {"OBJECT_NAME": "SKYSAT-B", "OBJECT_ID": "2014-037D", "EPOCH": "2025-12-25T19:19:36.203232", "MEAN_MOTION": 14.87373258, "ECCENTRICITY": 0.00068538, "INCLINATION": 98.3629, "RA_OF_ASC_NODE": 304.2026, "ARG_OF_PERICENTER": 113.9297, "MEAN_ANOMALY": 246.2636, "EPHEMERIS_TYPE": 0, "CLASSIFICATION_TYPE": "U", "NORAD_CAT_ID": 40072, "ELEMENT_SET_NO": 999, "REV_AT_EPOCH": 62018, "BSTAR": 0.00021241273, "MEAN_MOTION_DOT": 1.859e-05, "MEAN_MOTION_DDOT": 0}, "tle": {"line1": "1 40072U 14037D   25359.80528013  .00001859  00000+0  21241-3 0  9994", "line2": "2 40072  98.3629 304.2026 0006853 113.9297 246.2636 14.87373258620187"}}, "geometry": {"type": "Point", "coordinates": [-24.344798407099102, -73.98451870402769]}}, {"type": "Feature", "properties": {"norad_id": 40115, "name": "WORLDVIEW-3 (WV-3)", "group": "resource", "lat": 57.027713682786136, "lon": 60.18885808759208, "alt_km": 608.6161029595814, "timestamp": "2025-12-26T09:30:53.284997+00:00", "meta": {"OBJECT_NAME": "WORLDVIEW-3 (WV-3)", "OBJECT_ID": "2014-048A", "EPOCH": "2025-12-26T02:47:06.006336", "MEAN_MOTION": 14.84677534, "ECCENTRICITY": 0.0002079, "INCLINATION": 97.8763, "RA_OF_ASC_NODE": 72.2332, "ARG_OF_PERICENTER": 127.9297, "MEAN_ANOMALY": 232.2106, "EPHEMERIS_TYPE": 0, "CLASSIFICATION_TYPE": "U", "NORAD_CAT_ID": 40115, "ELEMENT_SET_NO": 999, "REV_AT_EPOCH": 61622, "BSTAR": 0.00013214, "MEAN_MOTION_DOT": 1.065e-05, "MEAN_MOTION_DDOT": 0}, "tle": {"line1": "1 40115U 14048A   25360.11604174  .00001065  00000+0  13214-3 0  9993", "line2": "2 40115  97.8763  72.2332 0002079 127.9297 232.2106 14.84677534616229"}}, "geometry": {"type": "Point", "coordinates": [60.18885808759208, 57.027713682786136]}}]}